CCSDS_OMM_VERS = 2.0
CREATION_DATE  = 
ORIGINATOR     = 

OBJECT_NAME    = STARLINK-36255
OBJECT_ID      = 2025-299A
CENTER_NAME    = EARTH
REF_FRAME      = TEME
TIME_SYSTEM    = UTC
MEAN_ELEMENT_THEORY = SGP/SGP4

EPOCH          = 2026-01-13T13:47:25.256832
MEAN_MOTION    = 15.40728019
ECCENTRICITY   = .00009935
INCLINATION    = 42.9988
RA_OF_ASC_NODE = 126.6166
ARG_OF_PERICENTER = 106.5023
MEAN_ANOMALY   = 253.5943

EPHEMERIS_TYPE = 0
CLASSIFICATION_TYPE = U
NORAD_CAT_ID   = 67102
ELEMENT_SET_NO = 999
REV_AT_EPOCH   = 461
BSTAR          = .65431923E-3
MEAN_MOTION_DOT = .27151E-3
MEAN_MOTION_DDOT = 0

CCSDS_OMM_VERS = 2.0
CREATION_DATE  = 
ORIGINATOR     = 

OBJECT_NAME    = STARLINK-36256
OBJECT_ID      = 2025-299B
CENTER_NAME    = EARTH
REF_FRAME      = TEME
TIME_SYSTEM    = UTC
MEAN_ELEMENT_THEORY = SGP/SGP4

EPOCH          = 2026-01-13T15:14:19.267872
MEAN_MOTION    = 15.40724661
ECCENTRICITY   = .00016292
INCLINATION    = 43.0004
RA_OF_ASC_NODE = 126.2097
ARG_OF_PERICENTER = 282.0301
MEAN_ANOMALY   = 78.0373

EPHEMERIS_TYPE = 0
CLASSIFICATION_TYPE = U
NORAD_CAT_ID   = 67103
ELEMENT_SET_NO = 999
REV_AT_EPOCH   = 462
BSTAR          = .64159511E-3
MEAN_MOTION_DOT = .26613E-3
MEAN_MOTION_DDOT = 0

CCSDS_OMM_VERS = 2.0
CREATION_DATE  = 
ORIGINATOR     = 

OBJECT_NAME    = STARLINK-36258
OBJECT_ID      = 2025-299C
CENTER_NAME    = EARTH
REF_FRAME      = TEME
TIME_SYSTEM    = UTC
MEAN_ELEMENT_THEORY = SGP/SGP4

EPOCH          = 2026-01-13T14:00:01.000224
MEAN_MOTION    = 15.44291124
ECCENTRICITY   = .00015
INCLINATION    = 43.0001
RA_OF_ASC_NODE = 125.7686
ARG_OF_PERICENTER = 270.1085
MEAN_ANOMALY   = 109.2230

EPHEMERIS_TYPE = 0
CLASSIFICATION_TYPE = U
NORAD_CAT_ID   = 67104
ELEMENT_SET_NO = 999
REV_AT_EPOCH   = 592
BSTAR          = -.47228742E-1
MEAN_MOTION_DOT = -.1986259E-1
MEAN_MOTION_DDOT = 0

CCSDS_OMM_VERS = 2.0
CREATION_DATE  = 
ORIGINATOR     = 

OBJECT_NAME    = STARLINK-36261
OBJECT_ID      = 2025-299D
CENTER_NAME    = EARTH
REF_FRAME      = TEME
TIME_SYSTEM    = UTC
MEAN_ELEMENT_THEORY = SGP/SGP4

EPOCH          = 2026-01-13T09:04:08.382720
MEAN_MOTION    = 15.40726236
ECCENTRICITY   = .000134
INCLINATION    = 42.9988
RA_OF_ASC_NODE = 127.7195
ARG_OF_PERICENTER = 244.1883
MEAN_ANOMALY   = 115.8836

EPHEMERIS_TYPE = 0
CLASSIFICATION_TYPE = U
NORAD_CAT_ID   = 67105
ELEMENT_SET_NO = 999
REV_AT_EPOCH   = 458
BSTAR          = .10231E-2
MEAN_MOTION_DOT = .4271E-3
MEAN_MOTION_DDOT = 0

CCSDS_OMM_VERS = 2.0
CREATION_DATE  = 
ORIGINATOR     = 

OBJECT_NAME    = STARLINK-36259
OBJECT_ID      = 2025-299E
CENTER_NAME    = EARTH
REF_FRAME      = TEME
TIME_SYSTEM    = UTC
MEAN_ELEMENT_THEORY = SGP/SGP4

EPOCH          = 2026-01-13T08:38:20.083488
MEAN_MOTION    = 15.40730226
ECCENTRICITY   = .0001024
INCLINATION    = 42.9974
RA_OF_ASC_NODE = 127.5842
ARG_OF_PERICENTER = 304.5428
MEAN_ANOMALY   = 55.5332

EPHEMERIS_TYPE = 0
CLASSIFICATION_TYPE = U
NORAD_CAT_ID   = 67106
ELEMENT_SET_NO = 999
REV_AT_EPOCH   = 458
BSTAR          = .79471E-3
MEAN_MOTION_DOT = .3307E-3
MEAN_MOTION_DDOT = 0

CCSDS_OMM_VERS = 2.0
CREATION_DATE  = 
ORIGINATOR     = 

OBJECT_NAME    = STARLINK-36196
OBJECT_ID      = 2025-299F
CENTER_NAME    = EARTH
REF_FRAME      = TEME
TIME_SYSTEM    = UTC
MEAN_ELEMENT_THEORY = SGP/SGP4

EPOCH          = 2026-01-13T14:00:01.000224
MEAN_MOTION    = 15.40688795
ECCENTRICITY   = .00013008
INCLINATION    = 42.9994
RA_OF_ASC_NODE = 126.0858
ARG_OF_PERICENTER = 262.2353
MEAN_ANOMALY   = 345.4402

EPHEMERIS_TYPE = 0
CLASSIFICATION_TYPE = U
NORAD_CAT_ID   = 67107
ELEMENT_SET_NO = 999
REV_AT_EPOCH   = 592
BSTAR          = .40960025E-3
MEAN_MOTION_DOT = .16838E-3
MEAN_MOTION_DDOT = 0

CCSDS_OMM_VERS = 2.0
CREATION_DATE  = 
ORIGINATOR     = 

OBJECT_NAME    = STARLINK-36208
OBJECT_ID      = 2025-299G
CENTER_NAME    = EARTH
REF_FRAME      = TEME
TIME_SYSTEM    = UTC
MEAN_ELEMENT_THEORY = SGP/SGP4

EPOCH          = 2026-01-13T14:00:01.000224
MEAN_MOTION    = 15.40684163
ECCENTRICITY   = .00016569
INCLINATION    = 42.9991
RA_OF_ASC_NODE = 125.8741
ARG_OF_PERICENTER = 291.7566
MEAN_ANOMALY   = 43.0183

EPHEMERIS_TYPE = 0
CLASSIFICATION_TYPE = U
NORAD_CAT_ID   = 67108
ELEMENT_SET_NO = 999
REV_AT_EPOCH   = 592
BSTAR          = .29014962E-3
MEAN_MOTION_DOT = .11829E-3
MEAN_MOTION_DDOT = 0

CCSDS_OMM_VERS = 2.0
CREATION_DATE  = 
ORIGINATOR     = 

OBJECT_NAME    = STARLINK-35764
OBJECT_ID      = 2025-299H
CENTER_NAME    = EARTH
REF_FRAME      = TEME
TIME_SYSTEM    = UTC
MEAN_ELEMENT_THEORY = SGP/SGP4

EPOCH          = 2026-01-13T08:51:14.154048
MEAN_MOTION    = 15.40738277
ECCENTRICITY   = .0001328
INCLINATION    = 42.9992
RA_OF_ASC_NODE = 127.6517
ARG_OF_PERICENTER = 275.4358
MEAN_ANOMALY   = 84.6347

EPHEMERIS_TYPE = 0
CLASSIFICATION_TYPE = U
NORAD_CAT_ID   = 67109
ELEMENT_SET_NO = 999
REV_AT_EPOCH   = 567
BSTAR          = .10023E-2
MEAN_MOTION_DOT = .41846E-3
MEAN_MOTION_DDOT = 0

CCSDS_OMM_VERS = 2.0
CREATION_DATE  = 
ORIGINATOR     = 

OBJECT_NAME    = STARLINK-35781
OBJECT_ID      = 2025-299J
CENTER_NAME    = EARTH
REF_FRAME      = TEME
TIME_SYSTEM    = UTC
MEAN_ELEMENT_THEORY = SGP/SGP4

EPOCH          = 2026-01-13T14:00:01.000224
MEAN_MOTION    = 15.40696216
ECCENTRICITY   = .00013735
INCLINATION    = 42.9997
RA_OF_ASC_NODE = 126.2060
ARG_OF_PERICENTER = 273.4514
MEAN_ANOMALY   = 284.4616

EPHEMERIS_TYPE = 0
CLASSIFICATION_TYPE = U
NORAD_CAT_ID   = 67110
ELEMENT_SET_NO = 999
REV_AT_EPOCH   = 587
BSTAR          = .42059428E-3
MEAN_MOTION_DOT = .17303E-3
MEAN_MOTION_DDOT = 0

CCSDS_OMM_VERS = 2.0
CREATION_DATE  = 
ORIGINATOR     = 

OBJECT_NAME    = STARLINK-35875
OBJECT_ID      = 2025-299K
CENTER_NAME    = EARTH
REF_FRAME      = TEME
TIME_SYSTEM    = UTC
MEAN_ELEMENT_THEORY = SGP/SGP4

EPOCH          = 2026-01-13T14:00:01.000224
MEAN_MOTION    = 15.40700119
ECCENTRICITY   = .00014494
INCLINATION    = 42.9990
RA_OF_ASC_NODE = 125.9653
ARG_OF_PERICENTER = 282.7452
MEAN_ANOMALY   = 14.6760

EPHEMERIS_TYPE = 0
CLASSIFICATION_TYPE = U
NORAD_CAT_ID   = 67111
ELEMENT_SET_NO = 999
REV_AT_EPOCH   = 581
BSTAR          = .42764114E-3
MEAN_MOTION_DOT = .17601E-3
MEAN_MOTION_DDOT = 0

CCSDS_OMM_VERS = 2.0
CREATION_DATE  = 
ORIGINATOR     = 

OBJECT_NAME    = STARLINK-35906
OBJECT_ID      = 2025-299L
CENTER_NAME    = EARTH
REF_FRAME      = TEME
TIME_SYSTEM    = UTC
MEAN_ELEMENT_THEORY = SGP/SGP4

EPOCH          = 2026-01-13T14:00:01.000224
MEAN_MOTION    = 15.40664669
ECCENTRICITY   = .00015898
INCLINATION    = 42.9993
RA_OF_ASC_NODE = 125.7837
ARG_OF_PERICENTER = 276.2969
MEAN_ANOMALY   = 95.8241

EPHEMERIS_TYPE = 0
CLASSIFICATION_TYPE = U
NORAD_CAT_ID   = 67112
ELEMENT_SET_NO = 999
REV_AT_EPOCH   = 581
BSTAR          = .62692832E-3
MEAN_MOTION_DOT = .25943E-3
MEAN_MOTION_DDOT = 0

CCSDS_OMM_VERS = 2.0
CREATION_DATE  = 
ORIGINATOR     = 

OBJECT_NAME    = STARLINK-35789
OBJECT_ID      = 2025-299M
CENTER_NAME    = EARTH
REF_FRAME      = TEME
TIME_SYSTEM    = UTC
MEAN_ELEMENT_THEORY = SGP/SGP4

EPOCH          = 2026-01-13T14:35:36.716640
MEAN_MOTION    = 15.40716612
ECCENTRICITY   = .00016009
INCLINATION    = 43.0008
RA_OF_ASC_NODE = 126.0016
ARG_OF_PERICENTER = 271.9128
MEAN_ANOMALY   = 88.1545

EPHEMERIS_TYPE = 0
CLASSIFICATION_TYPE = U
NORAD_CAT_ID   = 67113
ELEMENT_SET_NO = 999
REV_AT_EPOCH   = 462
BSTAR          = .78399272E-3
MEAN_MOTION_DOT = .32604E-3
MEAN_MOTION_DDOT = 0

