STARLINK-36255          
1 67102U 25299A   26013.57459788  .00027151  00000+0  65432-3 0  9996
2 67102  42.9988 126.6166 0000993 106.5023 253.5943 15.40728019  4613
STARLINK-36256          
1 67103U 25299B   26013.63494523  .00026613  00000+0  64160-3 0  9999
2 67103  43.0004 126.2097 0001629 282.0301  78.0373 15.40724661  4627
STARLINK-36258          
1 67104U 25299C   26013.58334491 -.01986259  00000+0 -47229-1 0  9990
2 67104  43.0001 125.7686 0001500 270.1085 109.2230 15.44291124  5928
STARLINK-36261          
1 67105U 25299D   26013.37787480  .00042710  00000+0  10231-2 0  9994
2 67105  42.9988 127.7195 0001340 244.1883 115.8836 15.40726236  4586
STARLINK-36259          
1 67106U 25299E   26013.35995467  .00033070  00000+0  79471-3 0  9990
2 67106  42.9974 127.5842 0001024 304.5428  55.5332 15.40730226  4589
STARLINK-36196          
1 67107U 25299F   26013.58334491  .00016838  00000+0  40960-3 0  9994
2 67107  42.9994 126.0858 0001300 262.2353 345.4402 15.40688795  5928
STARLINK-36208          
1 67108U 25299G   26013.58334491  .00011829  00000+0  29015-3 0  9998
2 67108  42.9991 125.8741 0001656 291.7566  43.0183 15.40684163  5923
STARLINK-35764          
1 67109U 25299H   26013.36891382  .00041846  00000+0  10023-2 0  9992
2 67109  42.9992 127.6517 0001328 275.4358  84.6347 15.40738277  5671
STARLINK-35781          
1 67110U 25299J   26013.58334491  .00017303  00000+0  42059-3 0  9997
2 67110  42.9997 126.2060 0001373 273.4514 284.4616 15.40696216  5875
STARLINK-35875          
1 67111U 25299K   26013.58334491  .00017601  00000+0  42764-3 0  9992
2 67111  42.9990 125.9653 0001449 282.7452  14.6760 15.40700119  5816
STARLINK-35906          
1 67112U 25299L   26013.58334491  .00025943  00000+0  62693-3 0  9994
2 67112  42.9993 125.7837 0001589 276.2969  95.8241 15.40664669  5812
STARLINK-35789          
1 67113U 25299M   26013.60806385  .00032604  00000+0  78399-3 0  9996
2 67113  43.0008 126.0016 0001600 271.9128  88.1545 15.40716612  4624
